NORAD_CAT_ID,OBJECT_NAME,OBJECT_TYPE,EPOCH,MEAN_MOTION,ECCENTRICITY,INCLINATION,RA_OF_ASC_NODE,ARG_OF_PERICENTER,MEAN_ANOMALY,BSTAR,MEAN_MOTION_DOT,MEAN_MOTION_DDOT,TLE_LINE0,TLE_LINE1,TLE_LINE2,SEMIMAJOR_AXIS,PERIOD,APOGEE,PERIGEE,DECAYED
53259.0,STARLINK-4140,PAYLOAD,2022-10-24 22:00:00,15.08786631,0.000154,53.2162,323.7486,39.8196,175.5143,0.0029757,0.00047319,0.0,0 STARLINK-4140,1 53259U 22086T   22297.91667824  .00047319  00000-0  29757-2 0  9993,2 53259  53.2162 323.7486 0001540  39.8196 175.5143 15.08786631  1309,6918.044,95.441,540.974,538.8430000000002,0.0
53259.0,STARLINK-4140,PAYLOAD,2022-10-25 14:00:01,15.0881512,0.000181,53.2162,320.7575,36.3382,202.1133,0.0016965999999999,0.00026798,0.0,0 STARLINK-4140,1 53259U 22086T   22298.58334491  .00026798  00000-0  16966-2 0  9994,2 53259  53.2162 320.7575 0001810  36.3382 202.1133 15.08815120 15020,6917.956,95.439,541.0740000000002,538.569,0.0
53259.0,STARLINK-4140,PAYLOAD,2022-10-25 22:00:01,15.08809172,0.000165,53.2164,319.2591,41.345,208.755,0.0031451,0.0005008,0.0,0 STARLINK-4140,1 53259U 22086T   22298.91668981  .00050080  00000-0  31451-2 0  9992,2 53259  53.2164 319.2591 0001650  41.3450 208.7550 15.08809172  1308,6917.975,95.44,540.981,538.698,0.0
53259.0,STARLINK-4140,PAYLOAD,2022-10-26 14:00:01,15.08845076,0.0001896,53.2164,316.2678,37.7989,235.4132,0.0008937999999999,0.00013967,0.0,0 STARLINK-4140,1 53259U 22086T   22299.58334491  .00013967  00000-0  89380-3 0  9990,2 53259  53.2164 316.2678 0001896  37.7989 235.4132 15.08845076  1305,6917.865,95.437,541.0419999999998,538.418,0.0
53259.0,STARLINK-4140,PAYLOAD,2022-10-26 22:00:00,15.08843104,0.0001751,53.2167,314.7696,44.393,240.4353,0.00060738,9.392e-05,0.0,0 STARLINK-4140,1 53259U 22086T   22299.91667824  .00009392  00000-0  60738-3 0  9999,2 53259  53.2167 314.7696 0001751  44.3930 240.4353 15.08843104  1302,6917.871,95.437,540.947,538.525,0.0
53259.0,STARLINK-4140,PAYLOAD,2022-10-27 14:00:01,15.088524,0.000199,53.2166,311.778,41.6443,266.4527,0.00041078,6.258e-05,0.0,0 STARLINK-4140,1 53259U 22086T   22300.58335648  .00006258  00000-0  41078-3 0  9995,2 53259  53.2166 311.7780 0001990  41.6443 266.4527 15.08852400 15334,6917.842,95.437,541.0840000000002,538.331,0.0
53259.0,STARLINK-4140,PAYLOAD,2022-10-27 22:00:00,15.08843919,0.0001776,53.2168,310.28,46.9348,272.7188,0.00059969,9.27e-05,0.0,0 STARLINK-4140,1 53259U 22086T   22300.91667824  .00009270  00000-0  59969-3 0  9991,2 53259  53.2168 310.2800 0001776  46.9348 272.7188 15.08843919  1307,6917.868,95.437,540.962,538.505,0.0
53259.0,STARLINK-4140,PAYLOAD,2022-10-28 14:00:01,15.08863512,0.0001873,53.2166,307.2885,39.7438,303.1845,-0.0028712,-0.00045724,0.0,0 STARLINK-4140,1 53259U 22086T   22301.58335648 -.00045724  00000-0 -28712-2 0  9998,2 53259  53.2166 307.2885 0001873  39.7438 303.1845 15.08863512  1302,6917.809,95.436,540.969,538.378,0.0
53259.0,STARLINK-4140,PAYLOAD,2022-10-28 22:00:01,15.08822239,0.0001686999999999,53.2167,305.7906,46.4203,308.1176,0.0015616,0.0002463999999999,0.0,0 STARLINK-4140,1 53259U 22086T   22301.91668981  .00024640  00000-0  15616-2 0  9995,2 53259  53.2167 305.7906 0001687  46.4203 308.1176 15.08822239  1301,6917.935,95.439,540.967,538.633,0.0
53259.0,STARLINK-4140,PAYLOAD,2022-10-29 12:00:00,15.08819063,0.0001968,53.2164,303.1740000000001,43.8072,240.9494,0.0029561,0.00047046,0.0,0 STARLINK-4140,1 53259U 22086T   22302.50001157  .00047046  00000-0  29561-2 0  9996,2 53259  53.2164 303.1740 0001968  43.8072 240.9494 15.08819063  1300,6917.944,95.439,541.1709999999998,538.448,0.0
53259.0,STARLINK-4140,PAYLOAD,2022-10-29 22:00:01,15.08834364,0.0001759,53.2163,301.3015,51.0227,338.2975,0.0033341,0.00053167,0.0,0 STARLINK-4140,1 53259U 22086T   22302.91668981  .00053167  00000-0  33341-2 0  9997,2 53259  53.2163 301.3015 0001759  51.0227 338.2975 15.08834364  1301,6917.898,95.438,540.979,538.5459999999998,0.0
53259.0,STARLINK-4140,PAYLOAD,2022-10-30 00:00:00,15.08864786,0.000179,53.2166,300.9276,52.0688,70.0812,8.0031e-05,9.87e-06,0.0,0 STARLINK-4140,1 53259U 22086T   22303.00001157  .00000987  00000-0  80031-4 0  9996,2 53259  53.2166 300.9276 0001790  52.0688  70.0812 15.08864786 15694,6917.805,95.436,540.908,538.431,0.0
53259.0,STARLINK-4140,PAYLOAD,2022-10-30 14:00:01,15.08847984,0.0001865,53.216,298.3102,42.9918,9.4758,-0.0036815,-0.00058418,0.0,0 STARLINK-4140,1 53259U 22086T   22303.58334491 -.00058418  00000-0 -36815-2 0  9992,2 53259  53.2160 298.3102 0001865  42.9918   9.4758 15.08847984  1302,6917.856,95.437,541.011,538.431,0.0
53259.0,STARLINK-4140,PAYLOAD,2022-10-30 22:00:01,15.08804368,0.0001610999999999,53.216,296.8124,46.822,17.3022,0.0020643,0.00032686,0.0,0 STARLINK-4140,1 53259U 22086T   22303.91668981  .00032686  00000-0  20643-2 0  9992,2 53259  53.2160 296.8124 0001611  46.8220  17.3022 15.08804368  1308,6917.989000000001,95.44,540.969,538.74,0.0
53259.0,STARLINK-4140,PAYLOAD,2022-10-31 14:00:01,15.08858115,0.0001846,53.2159,293.8212,42.1244,45.0743,-0.0034427,-0.00054691,0.0,0 STARLINK-4140,1 53259U 22086T   22304.58334491 -.00054691  00000-0 -34427-2 0  9999,2 53259  53.2159 293.8212 0001846  42.1244  45.0743 15.08858115  1303,6917.825,95.436,540.967,538.413,0.0
53259.0,STARLINK-4140,PAYLOAD,2022-10-31 22:00:01,15.08807539,0.0001774,53.216,292.3234,50.505,48.3555,0.0034499,0.00054997,0.0,0 STARLINK-4140,1 53259U 22086T   22304.91668981  .00054997  00000-0  34499-2 0  9996,2 53259  53.2160 292.3234 0001774  50.5050  48.3555 15.08807539 15981,6917.98,95.44,541.072,538.617,0.0
53259.0,STARLINK-4140,PAYLOAD,2022-11-01 14:00:01,15.08836107,0.0001865999999999,53.2159,289.3321,42.8321,79.1355,-0.0006475,-0.00010577,0.0,0 STARLINK-4140,1 53259U 22086T   22305.58334491 -.00010577  00000-0 -64750-3 0  9998,2 53259  53.2159 289.3321 0001866  42.8321  79.1355 15.08836107  1303,6917.892,95.438,541.048,538.466,0.0
53259.0,STARLINK-4140,PAYLOAD,2022-11-01 22:00:00,15.08837328,0.0001740999999999,53.2161,287.8344,48.8617,84.6902,0.00085144,0.00013288,0.0,0 STARLINK-4140,1 53259U 22086T   22305.91667824  .00013288  00000-0  85144-3 0  9994,2 53259  53.2161 287.8344 0001741  48.8617  84.6902 15.08837328  1305,6917.889,95.438,540.9580000000002,538.549,0.0
53259.0,STARLINK-4140,PAYLOAD,2022-11-02 14:00:01,15.08829603,0.0001786999999999,53.2163,284.8442,40.7253,116.0084,-0.00096198,-0.00015561,0.0,0 STARLINK-4140,1 53259U 22086T   22306.58334491 -.00015561  00000-0 -96198-3 0  9998,2 53259  53.2163 284.8442 0001787  40.7253 116.0084 15.08829603 16236,6917.9119999999975,95.438,541.013,538.5409999999998,0.0
53259.0,STARLINK-4140,PAYLOAD,2022-11-02 18:00:02,15.08803149,0.0001668,53.2169,284.0966,43.1895,299.4021,0.0029344,0.00046675,0.0,0 STARLINK-4140,1 53259U 22086T   22306.75002315  .00046675  00000-0  29344-2 0  9990,2 53259  53.2169 284.0966 0001668  43.1895 299.4021 15.08803149  1308,6917.993,95.44,541.012,538.7040000000002,0.0
53259.0,STARLINK-4140,PAYLOAD,2022-11-03 03:36:59,15.08836296,0.0001766,53.2173,282.2952,49.5405,310.5741,9.3628e-05,1.202e-05,0.0,0 STARLINK-4140,1 53259U 22086T   22307.15069014  .00001202  00000-0  93628-4 0  9999,2 53259  53.2173 282.2952 0001766  49.5405 310.5741 15.08836296 16325,6917.892,95.438,540.9780000000002,538.535,0.0
53259.0,STARLINK-4140,PAYLOAD,2022-11-03 09:58:31,15.08846571,0.0001751,53.2166,281.1058,48.495,311.6193,0.00023871,3.514e-05,0.0,0 STARLINK-4140,1 53259U 22086T   22307.41564579  .00003514  00000-0  23871-3 0  9994,2 53259  53.2166 281.1058 0001751  48.4950 311.6193 15.08846571 16363,6917.86,95.437,540.937,538.514,0.0
53259.0,STARLINK-4140,PAYLOAD,2022-11-04 09:49:18,15.08858977,0.0001635,53.2165,276.6456,44.4436,315.6687,0.0004041,6.152e-05,0.0,0 STARLINK-4140,1 53259U 22086T   22308.40923719  .00006152  00000-0  40410-3 0  9998,2 53259  53.2165 276.6456 0001635  44.4436 315.6687 15.08858977 16690,6917.821999999999,95.436,540.818,538.556,0.0
53259.0,STARLINK-4140,PAYLOAD,2022-11-04 20:56:59,15.08845288,0.00019,53.2162,274.5638,51.2904,308.8258,-5.0097e-05,-1.086e-05,0.0,0 STARLINK-4140,1 53259U 22086T   22308.87291532 -.00001086  00000-0 -50097-4 0  9996,2 53259  53.2162 274.5638 0001900  51.2904 308.8258 15.08845288 16764,6917.864000000001,95.437,541.044,538.415,0.0
53259.0,STARLINK-4140,PAYLOAD,2022-11-05 03:18:32,15.08840669,0.0001754999999999,53.2167,273.3752,40.0208,320.0913,3.36e-06,-2.35e-06,0.0,0 STARLINK-4140,1 53259U 22086T   22309.13788089 -.00000235  00000-0  33600-5 0  9990,2 53259  53.2167 273.3752 0001755  40.0208 320.0913 15.08840669 16621,6917.878000000002,95.438,540.957,538.529,0.0
53259.0,STARLINK-4140,PAYLOAD,2022-11-05 09:40:06,15.08829918,0.0001789,53.2175,272.1859,41.74100000000001,318.3718,-6.4527e-06,-3.91e-06,0.0,0 STARLINK-4140,1 53259U 22086T   22309.40285372 -.00000391  00000-0 -64527-5 0  9993,2 53259  53.2175 272.1859 0001789  41.7410 318.3718 15.08829918 16666,6917.911,95.438,541.014,538.539,0.0
53259.0,STARLINK-4140,PAYLOAD,2022-11-05 14:26:16,15.08821597,0.0001665999999999,53.2173,271.2931,45.0781,315.0346,-0.00014945,-2.665e-05,0.0,0 STARLINK-4140,1 53259U 22086T   22309.60158233 -.00002665  00000-0 -14945-3 0  9993,2 53259  53.2173 271.2931 0001666  45.0781 315.0346 15.08821597 16696,6917.937,95.439,540.9540000000002,538.649,0.0
53259.0,STARLINK-4140,PAYLOAD,2022-11-06 09:30:54,15.08833226,0.0001725,53.2175,267.7246,50.6583,309.4562,-0.00014221,-2.55e-05,0.0,0 STARLINK-4140,1 53259U 22086T   22310.39646159 -.00002550  00000-0 -14221-3 0  9990,2 53259  53.2175 267.7246 0001725  50.6583 309.4562 15.08833226 16818,6917.901,95.438,540.9590000000002,538.573,0.0
53259.0,STARLINK-4140,PAYLOAD,2022-11-07 04:35:31,15.08832963,0.0001832,53.2169,264.158,50.0418,310.0735,0.00011811,1.592e-05,0.0,0 STARLINK-4140,1 53259U 22086T   22311.19133913  .00001592  00000-0  11811-3 0  9993,2 53259  53.2169 264.1580 0001832  50.0418 310.0735 15.08832963 16933,6917.901999999999,95.438,541.034,538.5,0.0
